NORAD_CAT_ID,OBJECT_NAME,OBJECT_TYPE,EPOCH,MEAN_MOTION,ECCENTRICITY,INCLINATION,RA_OF_ASC_NODE,ARG_OF_PERICENTER,MEAN_ANOMALY,BSTAR,MEAN_MOTION_DOT,MEAN_MOTION_DDOT,TLE_LINE0,TLE_LINE1,TLE_LINE2,SEMIMAJOR_AXIS,PERIOD,APOGEE,PERIGEE,DECAYED
51989.0,STARLINK-3642,PAYLOAD,2023-07-01 00:56:57,15.08833428,0.0001176,53.2168,130.409,94.1676,265.9451,2.4338e-05,9.9e-07,0.0,0 STARLINK-3642,1 51989U 22025AK  23182.03954959  .00000099  00000-0  24338-4 0  9995,2 51989  53.2168 130.4090 0001176  94.1676 265.9451 15.08833428 73817,6917.9,95.438,540.579,538.952,0.0
51989.0,STARLINK-3642,PAYLOAD,2023-07-02 02:23:06,15.08842092,0.0001335,53.2163,125.6506,103.384,256.7301,5.568e-05,5.98e-06,0.0,0 STARLINK-3642,1 51989U 22025AK  23183.09938453  .00000598  00000-0  55680-4 0  9991,2 51989  53.2163 125.6506 0001335 103.3840 256.7301 15.08842092 73979,6917.874,95.437,540.663,538.815,0.0
51989.0,STARLINK-3642,PAYLOAD,2023-07-03 02:13:53,15.08873867,9.68e-05,53.2165,121.191,79.4891,280.621,-0.00041311,-6.862e-05,0.0,0 STARLINK-3642,1 51989U 22025AK  23184.09297459 -.00006862  00000-0 -41311-3 0  9993,2 51989  53.2165 121.1910 0000968  79.4891 280.6210 15.08873867 74128,6917.777,95.435,540.312,538.972,0.0
51989.0,STARLINK-3642,PAYLOAD,2023-07-03 05:24:40,15.08800828,0.0001326,53.2166,120.5962,100.286,259.8282,0.00068042,0.00010546,0.0,0 STARLINK-3642,1 51989U 22025AK  23184.22546952  .00010546  00000-0  68042-3 0  9995,2 51989  53.2166 120.5962 0001326 100.2860 259.8282 15.08800828 74143,6918.0,95.44,540.782,538.948,0.0
51989.0,STARLINK-3642,PAYLOAD,2023-07-03 13:21:36,15.08834663,0.0001294,53.2168,119.1083,90.3681,269.746,-1.0717e-05,-4.58e-06,0.0,0 STARLINK-3642,1 51989U 22025AK  23184.55667101 -.00000458  00000-0 -10717-4 0  9991,2 51989  53.2168 119.1083 0001294  90.3681 269.7460 15.08834663 74194,6917.897,95.438,540.657,538.867,0.0
51989.0,STARLINK-3642,PAYLOAD,2023-07-04 05:15:27,15.08840843,0.0001285,53.2169,116.1345,90.8419,269.272,-9.0738e-06,-4.32e-06,0.0,0 STARLINK-3642,1 51989U 22025AK  23185.21906773 -.00000432  00000-0 -90738-5 0  9990,2 51989  53.2169 116.1345 0001285  90.8419 269.2720 15.08840843 74299,6917.878,95.438,540.632,538.854,0.0
51989.0,STARLINK-3642,PAYLOAD,2023-07-05 01:55:29,15.08829121,0.000132,53.2168,112.2695,91.3507,268.7636,-5.7832e-05,-1.208e-05,0.0,0 STARLINK-3642,1 51989U 22025AK  23186.08019871 -.00001208  00000-0 -57832-4 0  9999,2 51989  53.2168 112.2695 0001320  91.3507 268.7636 15.08829121 74428,6917.914,95.438,540.692,538.865,0.0
51989.0,STARLINK-3642,PAYLOAD,2023-07-06 01:46:15,15.08839456,0.0001362,53.2172,107.8098,89.925,270.1898,8.9505e-05,1.137e-05,0.0,0 STARLINK-3642,1 51989U 22025AK  23187.07379262  .00001137  00000-0  89505-4 0  9993,2 51989  53.2172 107.8098 0001362  89.9250 270.1898 15.08839456 74579,6917.882,95.438,540.689,538.805,0.0
51989.0,STARLINK-3642,PAYLOAD,2023-07-08 03:03:12,15.08848804,0.0001508,53.218,98.595,103.0692,257.0469,7.6247e-05,9.26e-06,0.0,0 STARLINK-3642,1 51989U 22025AK  23189.12722946  .00000926  00000-0  76247-4 0  9996,2 51989  53.2180  98.5950 0001508 103.0692 257.0469 15.08848804 74880,6917.853,95.437,540.762,538.675,0.0
51989.0,STARLINK-3642,PAYLOAD,2023-07-09 02:54:00,15.08844265,0.0001167,53.2176,94.129,86.5623,273.5502,-3.3022e-05,-8.13e-06,0.0,0 STARLINK-3642,1 51989U 22025AK  23190.12083366 -.00000813  00000-0 -33022-4 0  9995,2 51989  53.2176  94.1290 0001167  86.5623 273.5502 15.08844265 75030,6917.867,95.437,540.54,538.925,0.0
51989.0,STARLINK-3642,PAYLOAD,2023-07-09 10:50:56,15.08833349,0.0001401,53.218,92.642,79.7706,280.3444,1.0366e-05,-1.23e-06,0.0,0 STARLINK-3642,1 51989U 22025AK  23190.45204067 -.00000123  00000-0  10366-4 0  9993,2 51989  53.2180  92.6420 0001401  79.7706 280.3444 15.08833349 75087,6917.901,95.438,540.735,538.797,0.0
51989.0,STARLINK-3642,PAYLOAD,2023-07-10 02:44:47,15.08841409,0.0001293,53.2178,89.668,86.1882,273.9258,5.662e-06,-1.98e-06,0.0,0 STARLINK-3642,1 51989U 22025AK  23191.11443657 -.00000198  00000-0  56620-5 0  9993,2 51989  53.2178  89.6680 0001293  86.1882 273.9258 15.08841409 75182,6917.876,95.437,540.636,538.847,0.0
51989.0,STARLINK-3642,PAYLOAD,2023-07-11 23:15:34,15.08847505,0.0001252,53.2178,81.3428,96.5243,263.5892,0.00011809,1.592e-05,0.0,0 STARLINK-3642,1 51989U 22025AK  23192.96914907  .00001592  00000-0  11809-3 0  9994,2 51989  53.2178  81.3428 0001252  96.5243 263.5892 15.08847505 75465,6917.857,95.437,540.589,538.856,0.0
51989.0,STARLINK-3642,PAYLOAD,2023-07-12 16:44:49,15.08837739,0.0001151,53.2174,78.0733,95.6819,264.4304,-7.0457e-06,-4e-06,0.0,0 STARLINK-3642,1 51989U 22025AK  23193.69779881 -.00000400  00000-0 -70457-5 0  9990,2 51989  53.2174  78.0733 0001151  95.6819 264.4304 15.08837739 75578,6917.887,95.438,540.549,538.956,0.0
51989.0,STARLINK-3642,PAYLOAD,2023-07-13 22:57:09,15.08842046,0.0001044,53.2178,72.4254,78.2319,281.879,-0.00010665,-1.985e-05,0.0,0 STARLINK-3642,1 51989U 22025AK  23194.95636203 -.00001985  00000-0 -10665-3 0  9992,2 51989  53.2178  72.4254 0001044  78.2319 281.8790 15.08842046 75761,6917.874,95.437,540.461,539.017,0.0
51989.0,STARLINK-3642,PAYLOAD,2023-07-15 00:23:18,15.08848346,0.0001076,53.2181,67.667,87.6969,272.4146,0.00014788,2.067e-05,0.0,0 STARLINK-3642,1 51989U 22025AK  23196.01619152  .00002067  00000-0  14788-3 0  9995,2 51989  53.2181  67.6670 0001076  87.6969 272.4146 15.08848346 75921,6917.855,95.437,540.464,538.976,0.0
51989.0,STARLINK-3642,PAYLOAD,2023-07-16 00:14:06,15.08839779,0.0001045,53.2184,63.2056,86.5834,273.5278,4.3522e-05,4.05e-06,0.0,0 STARLINK-3642,1 51989U 22025AK  23197.00980195  .00000405  00000-0  43522-4 0  9996,2 51989  53.2184  63.2056 0001045  86.5834 273.5278 15.08839779 76074,6917.881,95.438,540.469,539.023,0.0
51989.0,STARLINK-3642,PAYLOAD,2023-07-16 08:11:03,15.0883402,0.000104,53.2178,61.7203,92.6811,267.43,1.1969e-05,-9.7e-07,0.0,0 STARLINK-3642,1 51989U 22025AK  23197.34100722 -.00000097  00000-0  11969-4 0  9991,2 51989  53.2178  61.7203 0001040  92.6811 267.4300 15.08834020 76120,6917.899,95.438,540.483,539.044,0.0
51989.0,STARLINK-3642,PAYLOAD,2023-07-17 00:04:53,15.08846653,0.0001078,53.2182,58.745,88.5332,271.5783,-1.592e-05,-5.41e-06,0.0,0 STARLINK-3642,1 51989U 22025AK  23198.00340142 -.00000541  00000-0 -15920-4 0  9993,2 51989  53.2182  58.7450 0001078  88.5332 271.5783 15.08846653 76225,6917.86,95.437,540.471,538.979,0.0
51989.0,STARLINK-3642,PAYLOAD,2023-07-17 23:55:40,15.08852355,0.0001072,53.2181,54.2835,91.5013,268.6102,0.00016355,2.317e-05,0.0,0 STARLINK-3642,1 51989U 22025AK  23198.99699102  .00002317  00000-0  16355-3 0  9997,2 51989  53.2181  54.2835 0001072  91.5013 268.6102 15.08852355 76370,6917.843,95.437,540.449,538.966,0.0
51989.0,STARLINK-3642,PAYLOAD,2023-07-18 23:46:28,15.0883638,0.0001243,53.2181,49.8204,102.4972,257.6159,-1.2093e-05,-4.8e-06,0.0,0 STARLINK-3642,1 51989U 22025AK  23199.99060599 -.00000480  00000-0 -12093-4 0  9997,2 51989  53.2181  49.8204 0001243 102.4972 257.6159 15.08836380 76523,6917.891,95.438,540.616,538.897,0.0
51989.0,STARLINK-3642,PAYLOAD,2023-07-20 20:17:15,15.08841111,0.0001069,53.2183,41.4958,105.346,254.765,9.117e-05,1.164e-05,0.0,0 STARLINK-3642,1 51989U 22025AK  23201.84532251  .00001164  00000-0  91170-4 0  9995,2 51989  53.2183  41.4958 0001069 105.3460 254.7650 15.08841111 76802,6917.877,95.437,540.482,539.002,0.0
51989.0,STARLINK-3642,PAYLOAD,2023-07-21 13:46:30,15.08837842,0.0001045,53.2188,38.226,90.632,269.4792,7.2585e-05,8.68e-06,0.0,0 STARLINK-3642,1 51989U 22025AK  23202.57396679  .00000868  00000-0  72585-4 0  9997,2 51989  53.2188  38.2260 0001045  90.6320 269.4792 15.08837842 76910,6917.887,95.438,540.475,539.029,0.0
51989.0,STARLINK-3642,PAYLOAD,2023-07-23 21:25:01,15.088344,0.0001132,53.2196,27.8149,95.2743,264.8379,-2.4661e-05,-6.8e-06,0.0,0 STARLINK-3642,1 51989U 22025AK  23204.89237607 -.00000680  00000-0 -24661-4 0  9995,2 51989  53.2196  27.8149 0001132  95.2743 264.8379 15.08834400 76160,6917.898,95.438,540.546,538.979,0.0
51989.0,STARLINK-3642,PAYLOAD,2023-07-25 11:34:16,15.08837442,0.0001012,53.2189,20.6826,85.0586,275.0522,8.7763e-06,-1.48e-06,0.0,0 STARLINK-3642,1 51989U 22025AK  23206.48213260 -.00000148  00000-0  87763-5 0  9992,2 51989  53.2189  20.6826 0001012  85.0586 275.0522 15.08837442 76404,6917.888,95.438,540.453,539.053,0.0
51989.0,STARLINK-3642,PAYLOAD,2023-07-25 22:41:57,15.08848193,6.52e-05,53.2189,18.6007,105.1888,254.9176,5.7769e-05,6.32e-06,0.0,0 STARLINK-3642,1 51989U 22025AK  23206.94580513  .00000632  00000-0  57769-4 0  9990,2 51989  53.2189  18.6007 0000652 105.1888 254.9176 15.08848193 76473,6917.855,95.437,540.171,539.269,0.0
51989.0,STARLINK-3642,PAYLOAD,2023-07-26 19:21:58,15.08844175,8.83e-05,53.2191,14.7349,97.3559,262.7534,1.8571e-05,8e-08,0.0,0 STARLINK-3642,1 51989U 22025AK  23207.80692656  .00000008  00000-0  18571-4 0  9993,2 51989  53.2191  14.7349 0000883  97.3559 262.7534 15.08844175 76601,6917.868,95.437,540.343,539.122,0.0
51989.0,STARLINK-3642,PAYLOAD,2023-07-27 11:15:50,15.08834155,8.1e-05,53.2201,11.7607,101.2792,258.8291,-5.2257e-05,-1.119e-05,0.0,0 STARLINK-3642,1 51989U 22025AK  23208.46933689 -.00001119  00000-0 -52257-4 0  9995,2 51989  53.2201  11.7607 0000810 101.2792 258.8291 15.08834155 77807,6917.898,95.438,540.324,539.203,0.0
51989.0,STARLINK-3642,PAYLOAD,2023-07-27 19:12:46,15.08835398,9.76e-05,53.2199,10.2738,97.9926,262.1177,-3.9637e-05,-9.18e-06,0.0,0 STARLINK-3642,1 51989U 22025AK  23208.80053658 -.00000918  00000-0 -39637-4 0  9995,2 51989  53.2199  10.2738 0000976  97.9926 262.1177 15.08835398 76759,6917.894,95.438,540.435,539.084,0.0
51989.0,STARLINK-3642,PAYLOAD,2023-07-28 11:06:37,15.08834483,9.29e-05,53.2186,7.3016,95.5847,264.5251,1.9669e-05,2.5e-07,0.0,0 STARLINK-3642,1 51989U 22025AK  23209.46293719  .00000025  00000-0  19669-4 0  9992,2 51989  53.2186   7.3016 0000929  95.5847 264.5251 15.08834483 76859,6917.897,95.438,540.405,539.12,0.0
